{
  "norad_id": 58123,
  "name": "STARLINK-30781",
  "history": [
    {
      "epoch": "2026-03-28T21:08:16.668672",
      "apogee_km": 484.13609769231334,
      "perigee_km": 481.7843880013552,
      "latitude_deg": 26.142760847454802,
      "longitude_deg": 76.85185408010148,
      "semi_major_axis_km": 6861.097242846834,
      "eccentricity": 0.00017138,
      "inclination_deg": 43.0013,
      "raan_deg": 23.9824,
      "arg_perigee_deg": 237.1286,
      "mean_anomaly_deg": 122.9401,
      "mean_motion_rev_day": 15.27609674
    },
    {
      "epoch": "2026-03-29T04:59:04.118784",
      "apogee_km": 484.22538719692056,
      "perigee_km": 481.8623964977687,
      "latitude_deg": 42.612048309296874,
      "longitude_deg": 108.23790976009332,
      "semi_major_axis_km": 6861.180891847344,
      "eccentricity": 0.0001722,
      "inclination_deg": 43.0025,
      "raan_deg": 22.1401,
      "arg_perigee_deg": 268.602,
      "mean_anomaly_deg": 91.4634,
      "mean_motion_rev_day": 15.27581738
    }
  ]
}